CONNECTA IOT-7          
1 62715U 25009DL  26068.71616089  .00001651  00000+0  16028-3 0  9999
2 62715  97.7131 149.3044 0002300 127.5000 232.6430 14.93962714 62493
2025-274B               
1 66651U 25274B   26068.72424566  .00004400  00000+0  43239-3 0  9993
2 66651  97.7427 359.4041 0011511 330.3521  29.7045 14.92604325 15373
