[{"OBJECT_NAME":"CONNECTA IOT-7","OBJECT_ID":"2025-009DL","EPOCH":"2026-03-09T17:11:16.301760","MEAN_MOTION":14.93962714,"ECCENTRICITY":0.00023003,"INCLINATION":97.7131,"RA_OF_ASC_NODE":149.3044,"ARG_OF_PERICENTER":127.5,"MEAN_ANOMALY":232.643,"EPHEMERIS_TYPE":0,"CLASSIFICATION_TYPE":"U","NORAD_CAT_ID":62715,"ELEMENT_SET_NO":999,"REV_AT_EPOCH":6249,"BSTAR":0.00016028369,"MEAN_MOTION_DOT":1.651e-5,"MEAN_MOTION_DDOT":0},{"OBJECT_NAME":"OBJECT B","OBJECT_ID":"2025-274B","EPOCH":"2026-03-09T17:22:54.825024","MEAN_MOTION":14.92604325,"ECCENTRICITY":0.00115111,"INCLINATION":97.7427,"RA_OF_ASC_NODE":359.4041,"ARG_OF_PERICENTER":330.3521,"MEAN_ANOMALY":29.7045,"EPHEMERIS_TYPE":0,"CLASSIFICATION_TYPE":"U","NORAD_CAT_ID":66651,"ELEMENT_SET_NO":999,"REV_AT_EPOCH":1537,"BSTAR":0.00043239201,"MEAN_MOTION_DOT":4.4e-5,"MEAN_MOTION_DDOT":0}]
